SL-16 R/B               
1 22566U 93016B   26061.64154253  .00000337  00000+0  19741-3 0  9992
2 22566  71.0055 229.9844 0011289 324.0095  36.0266 14.15304512701178
COSMOS 2242             
1 22626U 93024A   26061.61532040  .00002183  00000+0  18944-3 0  9994
2 22626  82.5158 273.4848 0015722 334.2411  25.8026 14.96514627779337
SL-16 R/B               
1 22803U 93059B   26061.63052621  .00000092  00000+0  69181-4 0  9990
2 22803  70.9917  26.0115 0018827 226.4888 133.4672 14.17231937678532
ARIANE 40 R/B           
1 22830U 93061H   26061.43619316  .00000263  00000+0  11227-3 0  9998
2 22830  98.4933 130.4666 0009675 309.1340  50.8983 14.32856552693064
COSMOS 2278             
1 23087U 94023A   26061.59606921  .00000336  00000+0  19999-3 0  9992
2 23087  71.0539 189.9365 0007605  27.7691 332.3836 14.14374797643804
SL-16 R/B               
1 23088U 94023B   26061.50434279 -.00000064  00000+0 -81939-5 0  9994
2 23088  70.9986  85.9784 0005562 292.6207  67.4327 14.15013490645078
SL-16 R/B               
1 23343U 94074B   26061.63374424  .00000602  00000+0  87331-4 0  9990
2 23343  97.7119  92.7371 0005326 237.6091 235.5207 14.79398231686207
SL-16 R/B               
1 23405U 94077B   26061.27676201 -.00000243  00000+0 -99623-4 0  9990
2 23405  70.9850   8.0827 0003498 222.0855 137.9999 14.15562748615189
ARIANE 40+ R/B          
1 23561U 95021B   26061.67654426  .00000358  00000+0  12797-3 0  9993
2 23561  98.4512 133.2538 0007356 155.0786 358.2131 14.39766449618232
SL-16 R/B               
1 23705U 95058B   26061.63673198 -.00000080  00000+0 -16536-4 0  9996
2 23705  71.0209 195.0611 0011043 138.2628 221.9340 14.15492696566858
SL-16 R/B               
1 24298U 96051B   26061.65894550  .00000081  00000+0  70350-4 0  9990
2 24298  70.7594 190.1189 0015723 158.3600 201.8187 14.12413503520658
ORBVIEW 2 (SEASTAR)     
1 24883U 97037A   26061.44767048  .00000415  00000+0  16067-3 0  9998
2 24883  98.8553 225.5681 0003188  86.4858 273.6691 14.35488491507433
