CCSDS_OMM_VERS = 2.0
CREATION_DATE  = 
ORIGINATOR     = 

OBJECT_NAME    = SL-16 R/B
OBJECT_ID      = 1993-016B
CENTER_NAME    = EARTH
REF_FRAME      = TEME
TIME_SYSTEM    = UTC
MEAN_ELEMENT_THEORY = SGP/SGP4

EPOCH          = 2026-03-02T15:23:49.274592
MEAN_MOTION    = 14.15304512
ECCENTRICITY   = .00112896
INCLINATION    = 71.0055
RA_OF_ASC_NODE = 229.9844
ARG_OF_PERICENTER = 324.0095
MEAN_ANOMALY   = 36.0266

EPHEMERIS_TYPE = 0
CLASSIFICATION_TYPE = U
NORAD_CAT_ID   = 22566
ELEMENT_SET_NO = 999
REV_AT_EPOCH   = 70117
BSTAR          = .19741155E-3
MEAN_MOTION_DOT = .337E-5
MEAN_MOTION_DDOT = 0

CCSDS_OMM_VERS = 2.0
CREATION_DATE  = 
ORIGINATOR     = 

OBJECT_NAME    = COSMOS 2242
OBJECT_ID      = 1993-024A
CENTER_NAME    = EARTH
REF_FRAME      = TEME
TIME_SYSTEM    = UTC
MEAN_ELEMENT_THEORY = SGP/SGP4

EPOCH          = 2026-03-02T14:46:03.682560
MEAN_MOTION    = 14.96514627
ECCENTRICITY   = .0015722
INCLINATION    = 82.5158
RA_OF_ASC_NODE = 273.4848
ARG_OF_PERICENTER = 334.2411
MEAN_ANOMALY   = 25.8026

EPHEMERIS_TYPE = 0
CLASSIFICATION_TYPE = U
NORAD_CAT_ID   = 22626
ELEMENT_SET_NO = 999
REV_AT_EPOCH   = 77933
BSTAR          = .18943644E-3
MEAN_MOTION_DOT = .2183E-4
MEAN_MOTION_DDOT = 0

CCSDS_OMM_VERS = 2.0
CREATION_DATE  = 
ORIGINATOR     = 

OBJECT_NAME    = SL-16 R/B
OBJECT_ID      = 1993-059B
CENTER_NAME    = EARTH
REF_FRAME      = TEME
TIME_SYSTEM    = UTC
MEAN_ELEMENT_THEORY = SGP/SGP4

EPOCH          = 2026-03-02T15:07:57.464544
MEAN_MOTION    = 14.17231937
ECCENTRICITY   = .00188271
INCLINATION    = 70.9917
RA_OF_ASC_NODE = 26.0115
ARG_OF_PERICENTER = 226.4888
MEAN_ANOMALY   = 133.4672

EPHEMERIS_TYPE = 0
CLASSIFICATION_TYPE = U
NORAD_CAT_ID   = 22803
ELEMENT_SET_NO = 999
REV_AT_EPOCH   = 67853
BSTAR          = .69181273E-4
MEAN_MOTION_DOT = .92E-6
MEAN_MOTION_DDOT = 0

CCSDS_OMM_VERS = 2.0
CREATION_DATE  = 
ORIGINATOR     = 

OBJECT_NAME    = ARIANE 40 R/B
OBJECT_ID      = 1993-061H
CENTER_NAME    = EARTH
REF_FRAME      = TEME
TIME_SYSTEM    = UTC
MEAN_ELEMENT_THEORY = SGP/SGP4

EPOCH          = 2026-03-02T10:28:07.089024
MEAN_MOTION    = 14.32856552
ECCENTRICITY   = .00096759
INCLINATION    = 98.4933
RA_OF_ASC_NODE = 130.4666
ARG_OF_PERICENTER = 309.1340
MEAN_ANOMALY   = 50.8983

EPHEMERIS_TYPE = 0
CLASSIFICATION_TYPE = U
NORAD_CAT_ID   = 22830
ELEMENT_SET_NO = 999
REV_AT_EPOCH   = 69306
BSTAR          = .11226522E-3
MEAN_MOTION_DOT = .263E-5
MEAN_MOTION_DDOT = 0

CCSDS_OMM_VERS = 2.0
CREATION_DATE  = 
ORIGINATOR     = 

OBJECT_NAME    = COSMOS 2278
OBJECT_ID      = 1994-023A
CENTER_NAME    = EARTH
REF_FRAME      = TEME
TIME_SYSTEM    = UTC
MEAN_ELEMENT_THEORY = SGP/SGP4

EPOCH          = 2026-03-02T14:18:20.379744
MEAN_MOTION    = 14.14374797
ECCENTRICITY   = .00076052
INCLINATION    = 71.0539
RA_OF_ASC_NODE = 189.9365
ARG_OF_PERICENTER = 27.7691
MEAN_ANOMALY   = 332.3836

EPHEMERIS_TYPE = 0
CLASSIFICATION_TYPE = U
NORAD_CAT_ID   = 23087
ELEMENT_SET_NO = 999
REV_AT_EPOCH   = 64380
BSTAR          = .19998534E-3
MEAN_MOTION_DOT = .336E-5
MEAN_MOTION_DDOT = 0

CCSDS_OMM_VERS = 2.0
CREATION_DATE  = 
ORIGINATOR     = 

OBJECT_NAME    = SL-16 R/B
OBJECT_ID      = 1994-023B
CENTER_NAME    = EARTH
REF_FRAME      = TEME
TIME_SYSTEM    = UTC
MEAN_ELEMENT_THEORY = SGP/SGP4

EPOCH          = 2026-03-02T12:06:15.217056
MEAN_MOTION    = 14.15013490
ECCENTRICITY   = .00055626
INCLINATION    = 70.9986
RA_OF_ASC_NODE = 85.9784
ARG_OF_PERICENTER = 292.6207
MEAN_ANOMALY   = 67.4327

EPHEMERIS_TYPE = 0
CLASSIFICATION_TYPE = U
NORAD_CAT_ID   = 23088
ELEMENT_SET_NO = 999
REV_AT_EPOCH   = 64507
BSTAR          = -.8193883E-5
MEAN_MOTION_DOT = -.64E-6
MEAN_MOTION_DDOT = 0

CCSDS_OMM_VERS = 2.0
CREATION_DATE  = 
ORIGINATOR     = 

OBJECT_NAME    = SL-16 R/B
OBJECT_ID      = 1994-074B
CENTER_NAME    = EARTH
REF_FRAME      = TEME
TIME_SYSTEM    = UTC
MEAN_ELEMENT_THEORY = SGP/SGP4

EPOCH          = 2026-03-02T15:12:35.502336
MEAN_MOTION    = 14.79398231
ECCENTRICITY   = .00053266
INCLINATION    = 97.7119
RA_OF_ASC_NODE = 92.7371
ARG_OF_PERICENTER = 237.6091
MEAN_ANOMALY   = 235.5207

EPHEMERIS_TYPE = 0
CLASSIFICATION_TYPE = U
NORAD_CAT_ID   = 23343
ELEMENT_SET_NO = 999
REV_AT_EPOCH   = 68620
BSTAR          = .87331187E-4
MEAN_MOTION_DOT = .602E-5
MEAN_MOTION_DDOT = 0

CCSDS_OMM_VERS = 2.0
CREATION_DATE  = 
ORIGINATOR     = 

OBJECT_NAME    = SL-16 R/B
OBJECT_ID      = 1994-077B
CENTER_NAME    = EARTH
REF_FRAME      = TEME
TIME_SYSTEM    = UTC
MEAN_ELEMENT_THEORY = SGP/SGP4

EPOCH          = 2026-03-02T06:38:32.237664
MEAN_MOTION    = 14.15562748
ECCENTRICITY   = .00034984
INCLINATION    = 70.9850
RA_OF_ASC_NODE = 8.0827
ARG_OF_PERICENTER = 222.0855
MEAN_ANOMALY   = 137.9999

EPHEMERIS_TYPE = 0
CLASSIFICATION_TYPE = U
NORAD_CAT_ID   = 23405
ELEMENT_SET_NO = 999
REV_AT_EPOCH   = 61518
BSTAR          = -.99623328E-4
MEAN_MOTION_DOT = -.243E-5
MEAN_MOTION_DDOT = 0

CCSDS_OMM_VERS = 2.0
CREATION_DATE  = 
ORIGINATOR     = 

OBJECT_NAME    = ARIANE 40+ R/B
OBJECT_ID      = 1995-021B
CENTER_NAME    = EARTH
REF_FRAME      = TEME
TIME_SYSTEM    = UTC
MEAN_ELEMENT_THEORY = SGP/SGP4

EPOCH          = 2026-03-02T16:14:13.424064
MEAN_MOTION    = 14.39766449
ECCENTRICITY   = .00073561
INCLINATION    = 98.4512
RA_OF_ASC_NODE = 133.2538
ARG_OF_PERICENTER = 155.0786
MEAN_ANOMALY   = 358.2131

EPHEMERIS_TYPE = 0
CLASSIFICATION_TYPE = U
NORAD_CAT_ID   = 23561
ELEMENT_SET_NO = 999
REV_AT_EPOCH   = 61823
BSTAR          = .12797061E-3
MEAN_MOTION_DOT = .358E-5
MEAN_MOTION_DDOT = 0

CCSDS_OMM_VERS = 2.0
CREATION_DATE  = 
ORIGINATOR     = 

OBJECT_NAME    = SL-16 R/B
OBJECT_ID      = 1995-058B
CENTER_NAME    = EARTH
REF_FRAME      = TEME
TIME_SYSTEM    = UTC
MEAN_ELEMENT_THEORY = SGP/SGP4

EPOCH          = 2026-03-02T15:16:53.643072
MEAN_MOTION    = 14.15492696
ECCENTRICITY   = .00110436
INCLINATION    = 71.0209
RA_OF_ASC_NODE = 195.0611
ARG_OF_PERICENTER = 138.2628
MEAN_ANOMALY   = 221.9340

EPHEMERIS_TYPE = 0
CLASSIFICATION_TYPE = U
NORAD_CAT_ID   = 23705
ELEMENT_SET_NO = 999
REV_AT_EPOCH   = 56685
BSTAR          = -.16536106E-4
MEAN_MOTION_DOT = -.8E-6
MEAN_MOTION_DDOT = 0

CCSDS_OMM_VERS = 2.0
CREATION_DATE  = 
ORIGINATOR     = 

OBJECT_NAME    = SL-16 R/B
OBJECT_ID      = 1996-051B
CENTER_NAME    = EARTH
REF_FRAME      = TEME
TIME_SYSTEM    = UTC
MEAN_ELEMENT_THEORY = SGP/SGP4

EPOCH          = 2026-03-02T15:48:52.891200
MEAN_MOTION    = 14.12413503
ECCENTRICITY   = .00157236
INCLINATION    = 70.7594
RA_OF_ASC_NODE = 190.1189
ARG_OF_PERICENTER = 158.3600
MEAN_ANOMALY   = 201.8187

EPHEMERIS_TYPE = 0
CLASSIFICATION_TYPE = U
NORAD_CAT_ID   = 24298
ELEMENT_SET_NO = 999
REV_AT_EPOCH   = 52065
BSTAR          = .70350196E-4
MEAN_MOTION_DOT = .81E-6
MEAN_MOTION_DDOT = 0

CCSDS_OMM_VERS = 2.0
CREATION_DATE  = 
ORIGINATOR     = 

OBJECT_NAME    = ORBVIEW 2 (SEASTAR)
OBJECT_ID      = 1997-037A
CENTER_NAME    = EARTH
REF_FRAME      = TEME
TIME_SYSTEM    = UTC
MEAN_ELEMENT_THEORY = SGP/SGP4

EPOCH          = 2026-03-02T10:44:38.729472
MEAN_MOTION    = 14.35488491
ECCENTRICITY   = .00031888
INCLINATION    = 98.8553
RA_OF_ASC_NODE = 225.5681
ARG_OF_PERICENTER = 86.4858
MEAN_ANOMALY   = 273.6691

EPHEMERIS_TYPE = 0
CLASSIFICATION_TYPE = U
NORAD_CAT_ID   = 24883
ELEMENT_SET_NO = 999
REV_AT_EPOCH   = 50743
BSTAR          = .16067235E-3
MEAN_MOTION_DOT = .415E-5
MEAN_MOTION_DDOT = 0

